CCSDS_OMM_VERS = 2.0
CREATION_DATE  = 
ORIGINATOR     = 

OBJECT_NAME    = STARLINK-36131
OBJECT_ID      = 2025-294C
CENTER_NAME    = EARTH
REF_FRAME      = TEME
TIME_SYSTEM    = UTC
MEAN_ELEMENT_THEORY = SGP/SGP4

EPOCH          = 2025-12-30T22:00:03.000096
MEAN_MOTION    = 15.49387665
ECCENTRICITY   = .00014845
INCLINATION    = 43.0003
RA_OF_ASC_NODE = 72.1115
ARG_OF_PERICENTER = 286.8863
MEAN_ANOMALY   = 164.0233

EPHEMERIS_TYPE = 0
CLASSIFICATION_TYPE = U
NORAD_CAT_ID   = 67032
ELEMENT_SET_NO = 999
REV_AT_EPOCH   = 302
BSTAR          = -.41935009E-1
MEAN_MOTION_DOT = -.2094181E-1
MEAN_MOTION_DDOT = 0

CCSDS_OMM_VERS = 2.0
CREATION_DATE  = 
ORIGINATOR     = 

OBJECT_NAME    = STARLINK-36137
OBJECT_ID      = 2025-294D
CENTER_NAME    = EARTH
REF_FRAME      = TEME
TIME_SYSTEM    = UTC
MEAN_ELEMENT_THEORY = SGP/SGP4

EPOCH          = 2025-12-30T22:00:03.000096
MEAN_MOTION    = 15.51015487
ECCENTRICITY   = .00008248
INCLINATION    = 43.0003
RA_OF_ASC_NODE = 72.1146
ARG_OF_PERICENTER = 285.2312
MEAN_ANOMALY   = 164.2968

EPHEMERIS_TYPE = 0
CLASSIFICATION_TYPE = U
NORAD_CAT_ID   = 67033
ELEMENT_SET_NO = 999
REV_AT_EPOCH   = 302
BSTAR          = -.34420022E-1
MEAN_MOTION_DOT = -.1817043E-1
MEAN_MOTION_DDOT = 0

CCSDS_OMM_VERS = 2.0
CREATION_DATE  = 
ORIGINATOR     = 

OBJECT_NAME    = STARLINK-36140
OBJECT_ID      = 2025-294E
CENTER_NAME    = EARTH
REF_FRAME      = TEME
TIME_SYSTEM    = UTC
MEAN_ELEMENT_THEORY = SGP/SGP4

EPOCH          = 2025-12-30T22:00:03.000096
MEAN_MOTION    = 15.50709752
ECCENTRICITY   = .00015576
INCLINATION    = 43.0006
RA_OF_ASC_NODE = 72.1064
ARG_OF_PERICENTER = 275.1097
MEAN_ANOMALY   = 178.2801

EPHEMERIS_TYPE = 0
CLASSIFICATION_TYPE = U
NORAD_CAT_ID   = 67034
ELEMENT_SET_NO = 999
REV_AT_EPOCH   = 302
BSTAR          = -.40970053E-2
MEAN_MOTION_DOT = -.234727E-2
MEAN_MOTION_DDOT = 0

CCSDS_OMM_VERS = 2.0
CREATION_DATE  = 
ORIGINATOR     = 

OBJECT_NAME    = STARLINK-36085
OBJECT_ID      = 2025-294F
CENTER_NAME    = EARTH
REF_FRAME      = TEME
TIME_SYSTEM    = UTC
MEAN_ELEMENT_THEORY = SGP/SGP4

EPOCH          = 2025-12-30T22:00:03.000096
MEAN_MOTION    = 15.50644523
ECCENTRICITY   = .00016093
INCLINATION    = 43.0005
RA_OF_ASC_NODE = 72.0961
ARG_OF_PERICENTER = 270.3847
MEAN_ANOMALY   = 186.8621

EPHEMERIS_TYPE = 0
CLASSIFICATION_TYPE = U
NORAD_CAT_ID   = 67035
ELEMENT_SET_NO = 999
REV_AT_EPOCH   = 302
BSTAR          = -.28415021E-2
MEAN_MOTION_DOT = -.163982E-2
MEAN_MOTION_DDOT = 0

CCSDS_OMM_VERS = 2.0
CREATION_DATE  = 
ORIGINATOR     = 

OBJECT_NAME    = STARLINK-36125
OBJECT_ID      = 2025-294G
CENTER_NAME    = EARTH
REF_FRAME      = TEME
TIME_SYSTEM    = UTC
MEAN_ELEMENT_THEORY = SGP/SGP4

EPOCH          = 2025-12-30T22:00:03.000096
MEAN_MOTION    = 15.50634211
ECCENTRICITY   = .00013693
INCLINATION    = 43.0005
RA_OF_ASC_NODE = 72.1007
ARG_OF_PERICENTER = 276.7200
MEAN_ANOMALY   = 178.6073

EPHEMERIS_TYPE = 0
CLASSIFICATION_TYPE = U
NORAD_CAT_ID   = 67036
ELEMENT_SET_NO = 999
REV_AT_EPOCH   = 321
BSTAR          = -.21900093E-2
MEAN_MOTION_DOT = -.127005E-2
MEAN_MOTION_DDOT = 0

CCSDS_OMM_VERS = 2.0
CREATION_DATE  = 
ORIGINATOR     = 

OBJECT_NAME    = STARLINK-35732
OBJECT_ID      = 2025-294H
CENTER_NAME    = EARTH
REF_FRAME      = TEME
TIME_SYSTEM    = UTC
MEAN_ELEMENT_THEORY = SGP/SGP4

EPOCH          = 2025-12-30T22:00:03.000096
MEAN_MOTION    = 15.50651640
ECCENTRICITY   = .00015619
INCLINATION    = 43.0006
RA_OF_ASC_NODE = 72.0911
ARG_OF_PERICENTER = 275.6876
MEAN_ANOMALY   = 183.4719

EPHEMERIS_TYPE = 0
CLASSIFICATION_TYPE = U
NORAD_CAT_ID   = 67037
ELEMENT_SET_NO = 999
REV_AT_EPOCH   = 313
BSTAR          = -.29753891E-2
MEAN_MOTION_DOT = -.17157E-2
MEAN_MOTION_DDOT = 0

CCSDS_OMM_VERS = 2.0
CREATION_DATE  = 
ORIGINATOR     = 

OBJECT_NAME    = STARLINK-35775
OBJECT_ID      = 2025-294J
CENTER_NAME    = EARTH
REF_FRAME      = TEME
TIME_SYSTEM    = UTC
MEAN_ELEMENT_THEORY = SGP/SGP4

EPOCH          = 2025-12-30T22:00:03.000096
MEAN_MOTION    = 15.50641754
ECCENTRICITY   = .00012904
INCLINATION    = 43.0007
RA_OF_ASC_NODE = 72.0860
ARG_OF_PERICENTER = 268.5526
MEAN_ANOMALY   = 192.5301

EPHEMERIS_TYPE = 0
CLASSIFICATION_TYPE = U
NORAD_CAT_ID   = 67038
ELEMENT_SET_NO = 999
REV_AT_EPOCH   = 313
BSTAR          = -.27863724E-2
MEAN_MOTION_DOT = -.160849E-2
MEAN_MOTION_DDOT = 0

CCSDS_OMM_VERS = 2.0
CREATION_DATE  = 
ORIGINATOR     = 

OBJECT_NAME    = STARLINK-35705
OBJECT_ID      = 2025-294K
CENTER_NAME    = EARTH
REF_FRAME      = TEME
TIME_SYSTEM    = UTC
MEAN_ELEMENT_THEORY = SGP/SGP4

EPOCH          = 2025-12-30T22:00:03.000096
MEAN_MOTION    = 15.50642922
ECCENTRICITY   = .00012864
INCLINATION    = 43.0063
RA_OF_ASC_NODE = 72.0764
ARG_OF_PERICENTER = 272.6763
MEAN_ANOMALY   = 192.2309

EPHEMERIS_TYPE = 0
CLASSIFICATION_TYPE = U
NORAD_CAT_ID   = 67039
ELEMENT_SET_NO = 999
REV_AT_EPOCH   = 302
BSTAR          = -.16284985E-2
MEAN_MOTION_DOT = -.94942E-3
MEAN_MOTION_DDOT = 0

CCSDS_OMM_VERS = 2.0
CREATION_DATE  = 
ORIGINATOR     = 

OBJECT_NAME    = STARLINK-35786
OBJECT_ID      = 2025-294L
CENTER_NAME    = EARTH
REF_FRAME      = TEME
TIME_SYSTEM    = UTC
MEAN_ELEMENT_THEORY = SGP/SGP4

EPOCH          = 2025-12-30T22:00:03.000096
MEAN_MOTION    = 15.50656005
ECCENTRICITY   = .00015167
INCLINATION    = 43.0006
RA_OF_ASC_NODE = 72.0825
ARG_OF_PERICENTER = 275.5812
MEAN_ANOMALY   = 187.4115

EPHEMERIS_TYPE = 0
CLASSIFICATION_TYPE = U
NORAD_CAT_ID   = 67040
ELEMENT_SET_NO = 999
REV_AT_EPOCH   = 302
BSTAR          = -.31663681E-2
MEAN_MOTION_DOT = -.18234E-2
MEAN_MOTION_DDOT = 0

CCSDS_OMM_VERS = 2.0
CREATION_DATE  = 
ORIGINATOR     = 

OBJECT_NAME    = STARLINK-35765
OBJECT_ID      = 2025-294M
CENTER_NAME    = EARTH
REF_FRAME      = TEME
TIME_SYSTEM    = UTC
MEAN_ELEMENT_THEORY = SGP/SGP4

EPOCH          = 2025-12-30T22:00:03.000096
MEAN_MOTION    = 15.50638973
ECCENTRICITY   = .00012978
INCLINATION    = 43.0064
RA_OF_ASC_NODE = 72.0715
ARG_OF_PERICENTER = 273.0540
MEAN_ANOMALY   = 193.7721

EPHEMERIS_TYPE = 0
CLASSIFICATION_TYPE = U
NORAD_CAT_ID   = 67041
ELEMENT_SET_NO = 999
REV_AT_EPOCH   = 302
BSTAR          = -.15607308E-2
MEAN_MOTION_DOT = -.91038E-3
MEAN_MOTION_DDOT = 0

CCSDS_OMM_VERS = 2.0
CREATION_DATE  = 
ORIGINATOR     = 

OBJECT_NAME    = STARLINK-35773
OBJECT_ID      = 2025-294N
CENTER_NAME    = EARTH
REF_FRAME      = TEME
TIME_SYSTEM    = UTC
MEAN_ELEMENT_THEORY = SGP/SGP4

EPOCH          = 2025-12-30T22:00:03.000096
MEAN_MOTION    = 15.50662775
ECCENTRICITY   = .00014129
INCLINATION    = 43.0006
RA_OF_ASC_NODE = 72.0668
ARG_OF_PERICENTER = 271.6014
MEAN_ANOMALY   = 197.1468

EPHEMERIS_TYPE = 0
CLASSIFICATION_TYPE = U
NORAD_CAT_ID   = 67042
ELEMENT_SET_NO = 999
REV_AT_EPOCH   = 321
BSTAR          = -.32986159E-2
MEAN_MOTION_DOT = -.189805E-2
MEAN_MOTION_DDOT = 0

CCSDS_OMM_VERS = 2.0
CREATION_DATE  = 
ORIGINATOR     = 

OBJECT_NAME    = STARLINK-35901
OBJECT_ID      = 2025-294P
CENTER_NAME    = EARTH
REF_FRAME      = TEME
TIME_SYSTEM    = UTC
MEAN_ELEMENT_THEORY = SGP/SGP4

EPOCH          = 2025-12-30T22:00:03.000096
MEAN_MOTION    = 15.50740874
ECCENTRICITY   = .00014166
INCLINATION    = 43.0003
RA_OF_ASC_NODE = 72.0625
ARG_OF_PERICENTER = 276.4112
MEAN_ANOMALY   = 194.2297

EPHEMERIS_TYPE = 0
CLASSIFICATION_TYPE = U
NORAD_CAT_ID   = 67043
ELEMENT_SET_NO = 999
REV_AT_EPOCH   = 321
BSTAR          = -.48084529E-2
MEAN_MOTION_DOT = -.274355E-2
MEAN_MOTION_DDOT = 0

