STARLINK-36131          
1 67032U 25294C   25364.91670139 -.02094181  00000+0 -41935-1 0  9995
2 67032  43.0003  72.1115 0001484 286.8863 164.0233 15.49387665  3023
STARLINK-36137          
1 67033U 25294D   25364.91670139 -.01817043  00000+0 -34420-1 0  9996
2 67033  43.0003  72.1146 0000824 285.2312 164.2968 15.51015487  3027
STARLINK-36140          
1 67034U 25294E   25364.91670139 -.00234727  00000+0 -40970-2 0  9996
2 67034  43.0006  72.1064 0001557 275.1097 178.2801 15.50709752  3027
STARLINK-36085          
1 67035U 25294F   25364.91670139 -.00163982  00000+0 -28415-2 0  9991
2 67035  43.0005  72.0961 0001609 270.3847 186.8621 15.50644523  3029
STARLINK-36125          
1 67036U 25294G   25364.91670139 -.00127005  00000+0 -21900-2 0  9990
2 67036  43.0005  72.1007 0001369 276.7200 178.6073 15.50634211  3212
STARLINK-35732          
1 67037U 25294H   25364.91670139 -.00171570  00000+0 -29754-2 0  9992
2 67037  43.0006  72.0911 0001561 275.6876 183.4719 15.50651640  3135
STARLINK-35775          
1 67038U 25294J   25364.91670139 -.00160849  00000+0 -27864-2 0  9990
2 67038  43.0007  72.0860 0001290 268.5526 192.5301 15.50641754  3135
STARLINK-35705          
1 67039U 25294K   25364.91670139 -.00094942  00000+0 -16285-2 0  9996
2 67039  43.0063  72.0764 0001286 272.6763 192.2309 15.50642922  3026
STARLINK-35786          
1 67040U 25294L   25364.91670139 -.00182340  00000+0 -31664-2 0  9996
2 67040  43.0006  72.0825 0001516 275.5812 187.4115 15.50656005  3024
STARLINK-35765          
1 67041U 25294M   25364.91670139 -.00091038  00000+0 -15607-2 0  9999
2 67041  43.0064  72.0715 0001297 273.0540 193.7721 15.50638973  3021
STARLINK-35773          
1 67042U 25294N   25364.91670139 -.00189805  00000+0 -32986-2 0  9999
2 67042  43.0006  72.0668 0001412 271.6014 197.1468 15.50662775  3218
STARLINK-35901          
1 67043U 25294P   25364.91670139 -.00274355  00000+0 -48085-2 0  9992
2 67043  43.0003  72.0625 0001416 276.4112 194.2297 15.50740874  3210
